OBJECT_NAME,OBJECT_ID,EPOCH,MEAN_MOTION,ECCENTRICITY,INCLINATION,RA_OF_ASC_NODE,ARG_OF_PERICENTER,MEAN_ANOMALY,EPHEMERIS_TYPE,CLASSIFICATION_TYPE,NORAD_CAT_ID,ELEMENT_SET_NO,REV_AT_EPOCH,BSTAR,MEAN_MOTION_DOT,MEAN_MOTION_DDOT
ONEWEB-0053,2020-008AC,2026-07-15T12:41:12.688512,13.10372433,.00014676,87.8814,30.6347,77.8955,282.2337,0,U,45157,999,31162,.16858641E-2,.601E-5,0
ONEWEB-0054,2020-008AD,2026-07-15T11:42:33.121440,13.10374478,.00018762,87.8816,30.6287,86.0942,274.0400,0,U,45158,999,31173,-.18038027E-2,-.617E-5,0
ONEWEB-0056,2020-008AE,2026-07-15T12:50:46.876992,13.10370909,.00020847,87.8821,30.6124,85.7303,274.4063,0,U,45159,999,31189,.16066722E-2,.574E-5,0
ONEWEB-0057,2020-008AF,2026-07-15T13:15:36.045792,13.10369115,.00015249,87.8816,30.6207,73.6234,286.5061,0,U,45160,999,31206,-.69874849E-3,-.231E-5,0
ONEWEB-0058,2020-008AG,2026-07-15T12:56:35.240064,13.10372151,.00019,87.8810,30.6269,96.2678,263.8666,0,U,45161,999,31213,.12813701E-2,.46E-5,0
ONEWEB-0059,2020-008AH,2026-07-15T12:51:13.088160,13.10371519,.00015646,87.8813,30.6272,88.9899,271.1407,0,U,45162,999,31203,.16033376E-2,.572E-5,0
ONEWEB-0062,2020-008AJ,2026-07-15T13:24:58.428576,13.10370095,.00020757,87.8819,30.6122,95.8904,264.2460,0,U,45163,999,31190,-.14612438E-2,-.497E-5,0
ONEWEB-0065,2020-008AK,2026-07-15T12:23:53.542752,13.10378121,.00018349,87.8823,30.6285,78.2655,281.8678,0,U,45164,999,31159,.97711777E-3,.354E-5,0
ONEWEB-0066,2020-020A,2026-07-15T10:51:59.569920,13.11421535,.00017323,87.8882,15.4417,94.4645,265.6681,0,U,45424,999,30638,-.140973E-2,-.487E-5,0
ONEWEB-0067,2020-020B,2026-07-15T11:46:20.431200,13.11424901,.000173,87.8904,15.3617,86.1383,273.9943,0,U,45425,999,30644,.14473276E-2,.526E-5,0
ONEWEB-0080,2020-020C,2026-07-15T11:45:57.966336,13.11415895,.0002092,87.8894,15.4334,99.2148,260.9217,0,U,45426,999,30641,.16421011E-2,.595E-5,0
ONEWEB-0090,2020-020D,2026-07-15T12:27:26.421984,13.11415877,.00019087,87.8893,15.4322,91.6186,268.5160,0,U,45427,999,30638,-.12695854E-2,-.437E-5,0
ONEWEB-0061,2020-020E,2026-07-15T13:13:26.545152,13.11418708,.00018398,87.8892,15.4098,91.7415,268.3923,0,U,45428,999,30634,.74839061E-3,.278E-5,0
ONEWEB-0081,2020-020F,2026-07-15T12:46:46.417152,13.11417634,.00016167,87.8888,15.4228,89.6772,270.4541,0,U,45429,999,30645,-.14762211E-2,-.51E-5,0
ONEWEB-0069,2020-020G,2026-07-15T12:49:24.509280,13.11420015,.00016363,87.8891,15.4262,93.1446,266.9869,0,U,45430,999,30638,-.12564116E-2,-.433E-5,0
ONEWEB-0031,2020-020H,2026-07-15T11:50:39.559488,13.11417039,.00019812,87.8881,15.4370,94.2556,265.8798,0,U,45431,999,30636,.12744964E-2,.464E-5,0
ONEWEB-0027,2020-020J,2026-07-15T12:13:22.062432,13.17651435,.00022943,87.9147,0.2310,94.0207,266.1187,0,U,45432,999,31008,-.29466945E-4,.1E-7,0
ONEWEB-0064,2020-020K,2026-07-15T11:48:11.729088,13.11415504,.0002023,87.8886,15.4304,92.0074,268.1286,0,U,45433,999,30639,.14642641E-2,.532E-5,0
ONEWEB-0018,2020-020L,2026-07-15T12:34:21.453024,13.11416361,.000165,87.8886,15.4235,102.5935,257.5377,0,U,45434,999,30634,-.15207022E-2,-.526E-5,0
ONEWEB-0083,2020-020M,2026-07-15T12:20:07.090944,13.11415568,.00018875,87.8890,15.4206,92.8210,267.3134,0,U,45435,999,30638,-.84444458E-3,-.287E-5,0
ONEWEB-0095,2020-020N,2026-07-15T12:07:55.015968,13.11414320,.00022971,87.8891,15.4311,76.8658,283.2726,0,U,45436,999,30638,.45002327E-4,.29E-6,0
ONEWEB-0092,2020-020P,2026-07-15T12:51:52.128864,13.11415577,.00017289,87.8891,15.4159,96.8008,263.3317,0,U,45437,999,30650,-.95839414E-3,-.327E-5,0
ONEWEB-0085,2020-020Q,2026-07-15T12:19:43.226400,13.11415583,.00018618,87.8883,15.4256,89.4776,270.6565,0,U,45438,999,30638,-.73910015E-3,-.249E-5,0
ONEWEB-0096,2020-020R,2026-07-15T12:22:21.378144,13.11415135,.00019355,87.8889,15.4228,88.3354,271.7996,0,U,45439,999,30637,-.10483817E-2,-.359E-5,0
ONEWEB-0037,2020-020S,2026-07-15T13:00:11.202048,13.11417378,.00019749,87.8903,15.3910,86.8848,273.2506,0,U,45440,999,30641,-.59058749E-3,-.197E-5,0
ONEWEB-0042,2020-020T,2026-07-15T12:07:31.498752,13.11415111,.00017552,87.8890,15.4214,90.5657,269.5672,0,U,45441,999,30637,.20424396E-3,.85E-6,0
ONEWEB-0098,2020-020U,2026-07-15T12:01:36.835392,13.11413800,.00018813,87.8888,15.4310,92.4413,267.6930,0,U,45442,999,30635,.61534702E-3,.231E-5,0
ONEWEB-0055,2020-020V,2026-07-15T13:20:46.814496,13.11417992,.00019256,87.8891,15.4190,92.4483,267.6865,0,U,45443,999,30633,.124098E-2,.453E-5,0
ONEWEB-0093,2020-020W,2026-07-15T13:02:10.542048,13.10895298,.00015301,87.8894,15.4182,88.8197,271.3106,0,U,45444,999,30639,-.2897979E-3,-.89E-6,0
ONEWEB-0029,2020-020X,2026-07-15T11:41:05.009856,13.11415716,.00016066,87.8883,15.4330,93.6344,266.4967,0,U,45445,999,30636,.16400189E-2,.594E-5,0
