ONEWEB-0053             
1 45157U 20008AC  26196.52861908  .00000601  00000+0  16859-2 0  9992
2 45157  87.8814  30.6347 0001467  77.8955 282.2337 13.10372433311629
ONEWEB-0054             
1 45158U 20008AD  26196.48788335 -.00000617  00000+0 -18038-2 0  9990
2 45158  87.8816  30.6287 0001876  86.0942 274.0400 13.10374478311730
ONEWEB-0056             
1 45159U 20008AE  26196.53526478  .00000574  00000+0  16067-2 0  9995
2 45159  87.8821  30.6124 0002084  85.7303 274.4063 13.10370909311897
ONEWEB-0057             
1 45160U 20008AF  26196.55250053 -.00000231  00000+0 -69875-3 0  9990
2 45160  87.8816  30.6207 0001524  73.6234 286.5061 13.10369115312061
ONEWEB-0058             
1 45161U 20008AG  26196.53929676  .00000460  00000+0  12814-2 0  9995
2 45161  87.8810  30.6269 0001900  96.2678 263.8666 13.10372151312136
ONEWEB-0059             
1 45162U 20008AH  26196.53556815  .00000572  00000+0  16033-2 0  9998
2 45162  87.8813  30.6272 0001564  88.9899 271.1407 13.10371519312034
ONEWEB-0062             
1 45163U 20008AJ  26196.55900959 -.00000497  00000+0 -14612-2 0  9992
2 45163  87.8819  30.6122 0002075  95.8904 264.2460 13.10370095311902
ONEWEB-0065             
1 45164U 20008AK  26196.51659193  .00000354  00000+0  97712-3 0  9993
2 45164  87.8823  30.6285 0001834  78.2655 281.8678 13.10378121311597
ONEWEB-0066             
1 45424U 20020A   26196.45277280 -.00000487  00000+0 -14097-2 0  9995
2 45424  87.8882  15.4417 0001732  94.4645 265.6681 13.11421535306389
ONEWEB-0067             
1 45425U 20020B   26196.49051425  .00000526  00000+0  14473-2 0  9991
2 45425  87.8904  15.3617 0001730  86.1383 273.9943 13.11424901306441
ONEWEB-0080             
1 45426U 20020C   26196.49025424  .00000595  00000+0  16421-2 0  9993
2 45426  87.8894  15.4334 0002092  99.2148 260.9217 13.11415895306412
ONEWEB-0090             
1 45427U 20020D   26196.51905581 -.00000437  00000+0 -12696-2 0  9995
2 45427  87.8893  15.4322 0001908  91.6186 268.5160 13.11415877306389
ONEWEB-0061             
1 45428U 20020E   26196.55100168  .00000278  00000+0  74839-3 0  9997
2 45428  87.8892  15.4098 0001839  91.7415 268.3923 13.11418708306345
ONEWEB-0081             
1 45429U 20020F   26196.53248168 -.00000510  00000+0 -14762-2 0  9998
2 45429  87.8888  15.4228 0001616  89.6772 270.4541 13.11417634306450
ONEWEB-0069             
1 45430U 20020G   26196.53431145 -.00000433  00000+0 -12564-2 0  9991
2 45430  87.8891  15.4262 0001636  93.1446 266.9869 13.11420015306386
ONEWEB-0031             
1 45431U 20020H   26196.49351342  .00000464  00000+0  12745-2 0  9990
2 45431  87.8881  15.4370 0001981  94.2556 265.8798 13.11417039306362
ONEWEB-0027             
1 45432U 20020J   26196.50928313  .00000001  00000+0 -29467-4 0  9990
2 45432  87.9147   0.2310 0002294  94.0207 266.1187 13.17651435310080
ONEWEB-0064             
1 45433U 20020K   26196.49180242  .00000532  00000+0  14643-2 0  9996
2 45433  87.8886  15.4304 0002023  92.0074 268.1286 13.11415504306391
ONEWEB-0018             
1 45434U 20020L   26196.52385941 -.00000526  00000+0 -15207-2 0  9996
2 45434  87.8886  15.4235 0001650 102.5935 257.5377 13.11416361306343
ONEWEB-0083             
1 45435U 20020M   26196.51397096 -.00000287  00000+0 -84444-3 0  9994
2 45435  87.8890  15.4206 0001887  92.8210 267.3134 13.11415568306388
ONEWEB-0095             
1 45436U 20020N   26196.50549787  .00000029  00000+0  45002-4 0  9990
2 45436  87.8891  15.4311 0002297  76.8658 283.2726 13.11414320306380
ONEWEB-0092             
1 45437U 20020P   26196.53602001 -.00000327  00000+0 -95839-3 0  9998
2 45437  87.8891  15.4159 0001728  96.8008 263.3317 13.11415577306504
ONEWEB-0085             
1 45438U 20020Q   26196.51369475 -.00000249  00000+0 -73910-3 0  9991
2 45438  87.8883  15.4256 0001861  89.4776 270.6565 13.11415583306381
ONEWEB-0096             
1 45439U 20020R   26196.51552521 -.00000359  00000+0 -10484-2 0  9996
2 45439  87.8889  15.4228 0001935  88.3354 271.7996 13.11415135306371
ONEWEB-0037             
1 45440U 20020S   26196.54179632 -.00000197  00000+0 -59059-3 0  9991
2 45440  87.8903  15.3910 0001974  86.8848 273.2506 13.11417378306411
ONEWEB-0042             
1 45441U 20020T   26196.50522568  .00000085  00000+0  20424-3 0  9996
2 45441  87.8890  15.4214 0001755  90.5657 269.5672 13.11415111306372
ONEWEB-0098             
1 45442U 20020U   26196.50112078  .00000231  00000+0  61535-3 0  9999
2 45442  87.8888  15.4310 0001881  92.4413 267.6930 13.11413800306355
ONEWEB-0055             
1 45443U 20020V   26196.55609739  .00000453  00000+0  12410-2 0  9993
2 45443  87.8891  15.4190 0001925  92.4483 267.6865 13.11417992306333
ONEWEB-0093             
1 45444U 20020W   26196.54317757 -.00000089  00000+0 -28980-3 0  9996
2 45444  87.8894  15.4182 0001530  88.8197 271.3106 13.10895298306395
ONEWEB-0029             
1 45445U 20020X   26196.48686354  .00000594  00000+0  16400-2 0  9994
2 45445  87.8883  15.4330 0001606  93.6344 266.4967 13.11415716306362
